[{"OBJECT_NAME":"STARLINK-5858","OBJECT_ID":"2023-094AY","EPOCH":"2026-03-09T03:55:29.964864","MEAN_MOTION":15.02532713,"ECCENTRICITY":0.00012785,"INCLINATION":43.0035,"RA_OF_ASC_NODE":19.9351,"ARG_OF_PERICENTER":268.4358,"MEAN_ANOMALY":91.6338,"EPHEMERIS_TYPE":0,"CLASSIFICATION_TYPE":"U","NORAD_CAT_ID":57264,"ELEMENT_SET_NO":999,"REV_AT_EPOCH":14719,"BSTAR":6.23424e-7,"MEAN_MOTION_DOT":-1.95e-6,"MEAN_MOTION_DDOT":0},{"OBJECT_NAME":"FTV 3502","OBJECT_ID":"1962-039A","EPOCH":"2026-03-09T21:41:26.705184","MEAN_MOTION":14.91961609,"ECCENTRICITY":0.00806549,"INCLINATION":98.4622,"RA_OF_ASC_NODE":145.9901,"ARG_OF_PERICENTER":91.4356,"MEAN_ANOMALY":269.6102,"EPHEMERIS_TYPE":0,"CLASSIFICATION_TYPE":"U","NORAD_CAT_ID":369,"ELEMENT_SET_NO":999,"REV_AT_EPOCH":40080,"BSTAR":0.00025514942,"MEAN_MOTION_DOT":2.681e-5,"MEAN_MOTION_DDOT":0}]
